{
  "type": "FeatureCollection",
  "features": [
    {
      "type": "Feature",
      "properties": {
        "norad_id": 34588,
        "name": "COSMOS 2251 DEB",
        "group": "cosmos-2251-debris",
        "lat": -21.782588690278047,
        "lon": -94.54173267093448,
        "alt_km": 743.5140260007047,
        "timestamp": "2025-12-10T16:57:12.033626+00:00",
        "meta_object_name": "COSMOS 2251 DEB",
        "meta_object_id": "1993-036WA",
        "meta_epoch": "2025-12-10T06:06:05.980032",
        "meta_mean_motion": 14.42009503,
        "meta_eccentricity": 0.0019129,
        "meta_inclination": 74.0439,
        "meta_ra_of_asc_node": 272.8608,
        "meta_arg_of_pericenter": 325.7964,
        "meta_mean_anomaly": 185.2763,
        "meta_ephemeris_type": 0,
        "meta_classification_type": "U",
        "meta_norad_cat_id": 34588,
        "meta_element_set_no": 999,
        "meta_rev_at_epoch": 87914,
        "meta_bstar": 0.0007832,
        "meta_mean_motion_dot": 2.55e-05,
        "meta_mean_motion_ddot": 0,
        "tle_line1": "1 34588U 93036WA  25344.25423588  .00002550  00000+0  78320-3 0  9998",
        "tle_line2": "2 34588  74.0439 272.8608 0019129 325.7964 185.2763 14.42009503879147"
      },
      "geometry": {
        "type": "Point",
        "coordinates": [
          -94.54173267093448,
          -21.782588690278047
        ]
      }
    },
    {
      "type": "Feature",
      "properties": {
        "norad_id": 34589,
        "name": "COSMOS 2251 DEB",
        "group": "cosmos-2251-debris",
        "lat": -45.62895316139485,
        "lon": -103.36133850486647,
        "alt_km": 1077.4856491471746,
        "timestamp": "2025-12-10T16:57:12.033635+00:00",
        "meta_object_name": "COSMOS 2251 DEB",
        "meta_object_id": "1993-036WB",
        "meta_epoch": "2025-12-09T12:13:17.410656",
        "meta_mean_motion": 13.8604857,
        "meta_eccentricity": 0.02517935,
        "meta_inclination": 73.9254,
        "meta_ra_of_asc_node": 61.5361,
        "meta_arg_of_pericenter": 5.5277,
        "meta_mean_anomaly": 13.2328,
        "meta_ephemeris_type": 0,
        "meta_classification_type": "U",
        "meta_norad_cat_id": 34589,
        "meta_element_set_no": 999,
        "meta_rev_at_epoch": 84667,
        "meta_bstar": 0.00037001793,
        "meta_mean_motion_dot": 5.22e-06,
        "meta_mean_motion_ddot": 0,
        "tle_line1": "1 34589U 93036WB  25343.50922929  .00000522  00000+0  37002-3 0  9998",
        "tle_line2": "2 34589  73.9254  61.5361 0251793   5.5277  13.2328 13.86048570846678"
      },
      "geometry": {
        "type": "Point",
        "coordinates": [
          -103.36133850486647,
          -45.62895316139485
        ]
      }
    },
    {
      "type": "Feature",
      "properties": {
        "norad_id": 34590,
        "name": "COSMOS 2251 DEB",
        "group": "cosmos-2251-debris",
        "lat": 65.60416148334524,
        "lon": 5.510080416626447,
        "alt_km": 659.5643082046336,
        "timestamp": "2025-12-10T16:57:12.033646+00:00",
        "meta_object_name": "COSMOS 2251 DEB",
        "meta_object_id": "1993-036WC",
        "meta_epoch": "2025-12-10T08:56:51.819072",
        "meta_mean_motion": 14.54821545,
        "meta_eccentricity": 0.0067961,
        "meta_inclination": 74.0436,
        "meta_ra_of_asc_node": 327.0281,
        "meta_arg_of_pericenter": 97.3317,
        "meta_mean_anomaly": 28.045,
        "meta_ephemeris_type": 0,
        "meta_classification_type": "U",
        "meta_norad_cat_id": 34590,
        "meta_element_set_no": 999,
        "meta_rev_at_epoch": 89086,
        "meta_bstar": 0.00020825,
        "meta_mean_motion_dot": 8.92e-06,
        "meta_mean_motion_ddot": 0,
        "tle_line1": "1 34590U 93036WC  25344.37282198  .00000892  00000+0  20825-3 0  9998",
        "tle_line2": "2 34590  74.0436 327.0281 0067961  97.3317  28.0450 14.54821545890868"
      },
      "geometry": {
        "type": "Point",
        "coordinates": [
          5.510080416626447,
          65.60416148334524
        ]
      }
    },
    {
      "type": "Feature",
      "properties": {
        "norad_id": 34609,
        "name": "COSMOS 2251 DEB",
        "group": "cosmos-2251-debris",
        "lat": 72.67990312851224,
        "lon": 179.87678253580756,
        "alt_km": 852.7500548156004,
        "timestamp": "2025-12-10T16:57:12.033656+00:00",
        "meta_object_name": "COSMOS 2251 DEB",
        "meta_object_id": "1993-036WE",
        "meta_epoch": "2025-12-10T08:15:38.403072",
        "meta_mean_motion": 14.21778879,
        "meta_eccentricity": 0.0144945,
        "meta_inclination": 73.7329,
        "meta_ra_of_asc_node": 111.1002,
        "meta_arg_of_pericenter": 330.9687,
        "meta_mean_anomaly": 58.372,
        "meta_ephemeris_type": 0,
        "meta_classification_type": "U",
        "meta_norad_cat_id": 34609,
        "meta_element_set_no": 999,
        "meta_rev_at_epoch": 86598,
        "meta_bstar": 0.0011594,
        "meta_mean_motion_dot": 2.811e-05,
        "meta_mean_motion_ddot": 0,
        "tle_line1": "1 34609U 93036WE  25344.34419448  .00002811  00000+0  11594-2 0  9991",
        "tle_line2": "2 34609  73.7329 111.1002 0144945 330.9687  58.3720 14.21778879865989"
      },
      "geometry": {
        "type": "Point",
        "coordinates": [
          179.87678253580756,
          72.67990312851224
        ]
      }
    },
    {
      "type": "Feature",
      "properties": {
        "norad_id": 34610,
        "name": "COSMOS 2251 DEB",
        "group": "cosmos-2251-debris",
        "lat": -5.337897672706239,
        "lon": -95.64844257400843,
        "alt_km": 775.2011879748388,
        "timestamp": "2025-12-10T16:57:12.033666+00:00",
        "meta_object_name": "COSMOS 2251 DEB",
        "meta_object_id": "1993-036WF",
        "meta_epoch": "2025-12-10T05:02:03.691680",
        "meta_mean_motion": 14.07027764,
        "meta_eccentricity": 0.018028,
        "meta_inclination": 74.0193,
        "meta_ra_of_asc_node": 266.7563,
        "meta_arg_of_pericenter": 37.9263,
        "meta_mean_anomaly": 323.4412,
        "meta_ephemeris_type": 0,
        "meta_classification_type": "U",
        "meta_norad_cat_id": 34610,
        "meta_element_set_no": 999,
        "meta_rev_at_epoch": 85524,
        "meta_bstar": 0.0030988,
        "meta_mean_motion_dot": 5.981e-05,
        "meta_mean_motion_ddot": 0,
        "tle_line1": "1 34610U 93036WF  25344.20976495  .00005981  00000+0  30988-2 0  9997",
        "tle_line2": "2 34610  74.0193 266.7563 0180280  37.9263 323.4412 14.07027764855245"
      },
      "geometry": {
        "type": "Point",
        "coordinates": [
          -95.64844257400843,
          -5.337897672706239
        ]
      }
    },
    {
      "type": "Feature",
      "properties": {
        "norad_id": 34611,
        "name": "COSMOS 2251 DEB",
        "group": "cosmos-2251-debris",
        "lat": -43.668141121387144,
        "lon": 89.06186361914266,
        "alt_km": 684.9336334221098,
        "timestamp": "2025-12-10T16:57:12.033676+00:00",
        "meta_object_name": "COSMOS 2251 DEB",
        "meta_object_id": "1993-036WG",
        "meta_epoch": "2025-12-10T10:56:12.879168",
        "meta_mean_motion": 14.69433601,
        "meta_eccentricity": 0.0022962,
        "meta_inclination": 74.0532,
        "meta_ra_of_asc_node": 105.3859,
        "meta_arg_of_pericenter": 147.7445,
        "meta_mean_anomaly": 280.8164,
        "meta_ephemeris_type": 0,
        "meta_classification_type": "U",
        "meta_norad_cat_id": 34611,
        "meta_element_set_no": 999,
        "meta_rev_at_epoch": 88357,
        "meta_bstar": 0.0026991,
        "meta_mean_motion_dot": 0.00016052,
        "meta_mean_motion_ddot": 0,
        "tle_line1": "1 34611U 93036WG  25344.45570462  .00016052  00000+0  26991-2 0  9999",
        "tle_line2": "2 34611  74.0532 105.3859 0022962 147.7445 280.8164 14.69433601883579"
      },
      "geometry": {
        "type": "Point",
        "coordinates": [
          89.06186361914266,
          -43.668141121387144
        ]
      }
    },
    {
      "type": "Feature",
      "properties": {
        "norad_id": 34613,
        "name": "COSMOS 2251 DEB",
        "group": "cosmos-2251-debris",
        "lat": -5.120535194966486,
        "lon": -79.23051417119632,
        "alt_km": 845.7087261956485,
        "timestamp": "2025-12-10T16:57:12.033685+00:00",
        "meta_object_name": "COSMOS 2251 DEB",
        "meta_object_id": "1993-036WJ",
        "meta_epoch": "2025-12-09T12:55:21.253152",
        "meta_mean_motion": 14.26403229,
        "meta_eccentricity": 0.0110129,
        "meta_inclination": 73.9644,
        "meta_ra_of_asc_node": 284.366,
        "meta_arg_of_pericenter": 117.028,
        "meta_mean_anomaly": 3.7338,
        "meta_ephemeris_type": 0,
        "meta_classification_type": "U",
        "meta_norad_cat_id": 34613,
        "meta_element_set_no": 999,
        "meta_rev_at_epoch": 86417,
        "meta_bstar": 0.0019073,
        "meta_mean_motion_dot": 4.868e-05,
        "meta_mean_motion_ddot": 0,
        "tle_line1": "1 34613U 93036WJ  25343.53844043  .00004868  00000+0  19073-2 0  9993",
        "tle_line2": "2 34613  73.9644 284.3660 0110129 117.0280   3.7338 14.26403229864177"
      },
      "geometry": {
        "type": "Point",
        "coordinates": [
          -79.23051417119632,
          -5.120535194966486
        ]
      }
    }
  ]
}